INTELSAT 25 (IS-25)     
1 33153U 08034A   26095.66745639 -.00000221  00000+0  00000+0 0  9992
2 33153   2.5205  81.1756 0002837 255.0194  66.5529  1.00270899 64969
GALAXY 19 (G-19)        
1 33376U 08045A   26095.65445634 -.00000138  00000+0  00000+0 0  9999
2 33376   0.0186 245.1199 0002944 139.4102 308.0342  1.00272657 64177
FM-5                    
1 35493U 09034A   26095.58531360 -.00000198  00000+0  00000+0 0  9990
2 35493   0.0249 258.1389 0000629  45.6019  14.7042  1.00267058 45915
INTELSAT 14 (IS-14)     
1 36097U 09064A   26095.80735556 -.00000272  00000+0  00000+0 0  9995
2 36097   0.0462  70.4896 0002589 315.4108  53.8590  1.00272390 59872
INTELSAT 15 (IS-15)     
1 36106U 09067A   26095.88358310  .00000000  00000+0  00000+0 0  9994
2 36106   0.0147 213.5397 0002530 178.9503 204.9300  1.00269805 40501
DIRECTV 12              
1 36131U 09075A   26095.65332968 -.00000102  00000+0  00000+0 0  9991
2 36131   0.0357  31.5682 0000513  17.5396 277.3153  1.00271756 45822
INTELSAT 16 (IS-16)     
1 36397U 10006A   26095.80111554  .00000000  00000+0  00000+0 0  9990
2 36397   0.0107 212.7897 0002183 189.8905   3.6210  1.00269775 58921
XM-5                    
1 37185U 10053A   26095.65090300 -.00000022  00000+0  00000+0 0  9991
2 37185   0.0677 269.6265 0003959 266.5197 136.9328  1.00272681 56756
INTELSAT 17 (IS-17)     
1 37238U 10065B   26095.75804243  .00000000  00000+0  00000+0 0  9998
2 37238   0.0131 181.9365 0002453 204.2401 146.7658  1.00271705 52524
INTELSAT 28 (IS-28)     
1 37392U 11016A   26095.81004223 -.00000222  00000+0  00000+0 0  9990
2 37392   1.6189  83.4970 0004544 299.0546  71.4635  1.00271750 52561
INTELSAT 18 (IS-18)     
1 37834U 11056A   26095.78066211  .00000054  00000+0  00000+0 0  9998
2 37834   0.0136 247.5968 0001818 124.5705 282.9388  1.00269431 53082
INTELSAT 22 (IS-22)     
1 38098U 12011A   26095.86711584 -.00000057  00000+0  00000+0 0  9996
2 38098   0.0106 125.3024 0001739 262.1474 190.9720  1.00271638  6462
INTELSAT 19 (IS-19)     
1 38356U 12030A   26095.70656223 -.00000055  00000+0  00000+0 0  9993
2 38356   0.0272  98.6516 0003091 280.2375 235.4700  1.00270269 49723
INTELSAT 20 (IS-20)     
1 38740U 12043A   26095.68721647 -.00000022  00000+0  00000+0 0  9998
2 38740   0.0204 136.6203 0002408  35.0539 338.1955  1.00269592 50025
INTELSAT 21 (IS-21)     
1 38749U 12045A   26095.09177222 -.00000284  00000+0  00000+0 0  9998
2 38749   0.0182 208.7390 0001952 184.6489 135.0477  1.00272496 49797
INTELSAT 23 (IS-23)     
1 38867U 12057A   26095.80579556 -.00000283  00000+0  00000+0 0  9996
2 38867   0.0143 246.8169 0000290 154.6810  29.6768  1.00275117 49223
FM-6                    
1 39360U 13058A   26095.65064297 -.00000015  00000+0  00000+0 0  9994
2 39360   0.0148 211.4220 0002811 351.9825 108.4646  1.00278598 45348
