[{"OBJECT_NAME":"INTELSAT 25 (IS-25)","OBJECT_ID":"2008-034A","EPOCH":"2026-04-05T16:01:08.232096","MEAN_MOTION":1.00270899,"ECCENTRICITY":0.0002837,"INCLINATION":2.5205,"RA_OF_ASC_NODE":81.1756,"ARG_OF_PERICENTER":255.0194,"MEAN_ANOMALY":66.5529,"EPHEMERIS_TYPE":0,"CLASSIFICATION_TYPE":"U","NORAD_CAT_ID":33153,"ELEMENT_SET_NO":999,"REV_AT_EPOCH":6496,"BSTAR":0,"MEAN_MOTION_DOT":-2.21e-6,"MEAN_MOTION_DDOT":0},{"OBJECT_NAME":"GALAXY 19 (G-19)","OBJECT_ID":"2008-045A","EPOCH":"2026-04-05T15:42:25.027776","MEAN_MOTION":1.00272657,"ECCENTRICITY":0.0002944,"INCLINATION":0.0186,"RA_OF_ASC_NODE":245.1199,"ARG_OF_PERICENTER":139.4102,"MEAN_ANOMALY":308.0342,"EPHEMERIS_TYPE":0,"CLASSIFICATION_TYPE":"U","NORAD_CAT_ID":33376,"ELEMENT_SET_NO":999,"REV_AT_EPOCH":6417,"BSTAR":0,"MEAN_MOTION_DOT":-1.38e-6,"MEAN_MOTION_DDOT":0},{"OBJECT_NAME":"FM-5","OBJECT_ID":"2009-034A","EPOCH":"2026-04-05T14:02:51.095040","MEAN_MOTION":1.00267058,"ECCENTRICITY":6.29e-5,"INCLINATION":0.0249,"RA_OF_ASC_NODE":258.1389,"ARG_OF_PERICENTER":45.6019,"MEAN_ANOMALY":14.7042,"EPHEMERIS_TYPE":0,"CLASSIFICATION_TYPE":"U","NORAD_CAT_ID":35493,"ELEMENT_SET_NO":999,"REV_AT_EPOCH":4591,"BSTAR":0,"MEAN_MOTION_DOT":-1.98e-6,"MEAN_MOTION_DDOT":0},{"OBJECT_NAME":"INTELSAT 14 (IS-14)","OBJECT_ID":"2009-064A","EPOCH":"2026-04-05T19:22:35.520384","MEAN_MOTION":1.0027239,"ECCENTRICITY":0.0002589,"INCLINATION":0.0462,"RA_OF_ASC_NODE":70.4896,"ARG_OF_PERICENTER":315.4108,"MEAN_ANOMALY":53.859,"EPHEMERIS_TYPE":0,"CLASSIFICATION_TYPE":"U","NORAD_CAT_ID":36097,"ELEMENT_SET_NO":999,"REV_AT_EPOCH":5987,"BSTAR":0,"MEAN_MOTION_DOT":-2.72e-6,"MEAN_MOTION_DDOT":0},{"OBJECT_NAME":"INTELSAT 15 (IS-15)","OBJECT_ID":"2009-067A","EPOCH":"2026-04-05T21:12:21.579840","MEAN_MOTION":1.00269805,"ECCENTRICITY":0.000253,"INCLINATION":0.0147,"RA_OF_ASC_NODE":213.5397,"ARG_OF_PERICENTER":178.9503,"MEAN_ANOMALY":204.93,"EPHEMERIS_TYPE":0,"CLASSIFICATION_TYPE":"U","NORAD_CAT_ID":36106,"ELEMENT_SET_NO":999,"REV_AT_EPOCH":4050,"BSTAR":0,"MEAN_MOTION_DOT":0,"MEAN_MOTION_DDOT":0},{"OBJECT_NAME":"DIRECTV 12","OBJECT_ID":"2009-075A","EPOCH":"2026-04-05T15:40:47.684352","MEAN_MOTION":1.00271756,"ECCENTRICITY":5.13e-5,"INCLINATION":0.0357,"RA_OF_ASC_NODE":31.5682,"ARG_OF_PERICENTER":17.5396,"MEAN_ANOMALY":277.3153,"EPHEMERIS_TYPE":0,"CLASSIFICATION_TYPE":"U","NORAD_CAT_ID":36131,"ELEMENT_SET_NO":999,"REV_AT_EPOCH":4582,"BSTAR":0,"MEAN_MOTION_DOT":-1.02e-6,"MEAN_MOTION_DDOT":0},{"OBJECT_NAME":"INTELSAT 16 (IS-16)","OBJECT_ID":"2010-006A","EPOCH":"2026-04-05T19:13:36.382656","MEAN_MOTION":1.00269775,"ECCENTRICITY":0.0002183,"INCLINATION":0.0107,"RA_OF_ASC_NODE":212.7897,"ARG_OF_PERICENTER":189.8905,"MEAN_ANOMALY":3.621,"EPHEMERIS_TYPE":0,"CLASSIFICATION_TYPE":"U","NORAD_CAT_ID":36397,"ELEMENT_SET_NO":999,"REV_AT_EPOCH":5892,"BSTAR":0,"MEAN_MOTION_DOT":0,"MEAN_MOTION_DDOT":0},{"OBJECT_NAME":"XM-5","OBJECT_ID":"2010-053A","EPOCH":"2026-04-05T15:37:18.019200","MEAN_MOTION":1.00272681,"ECCENTRICITY":0.0003959,"INCLINATION":0.0677,"RA_OF_ASC_NODE":269.6265,"ARG_OF_PERICENTER":266.5197,"MEAN_ANOMALY":136.9328,"EPHEMERIS_TYPE":0,"CLASSIFICATION_TYPE":"U","NORAD_CAT_ID":37185,"ELEMENT_SET_NO":999,"REV_AT_EPOCH":5675,"BSTAR":0,"MEAN_MOTION_DOT":-2.2e-7,"MEAN_MOTION_DDOT":0},{"OBJECT_NAME":"INTELSAT 17 (IS-17)","OBJECT_ID":"2010-065B","EPOCH":"2026-04-05T18:11:34.865952","MEAN_MOTION":1.00271705,"ECCENTRICITY":0.0002453,"INCLINATION":0.0131,"RA_OF_ASC_NODE":181.9365,"ARG_OF_PERICENTER":204.2401,"MEAN_ANOMALY":146.7658,"EPHEMERIS_TYPE":0,"CLASSIFICATION_TYPE":"U","NORAD_CAT_ID":37238,"ELEMENT_SET_NO":999,"REV_AT_EPOCH":5252,"BSTAR":0,"MEAN_MOTION_DOT":0,"MEAN_MOTION_DDOT":0},{"OBJECT_NAME":"INTELSAT 28 (IS-28)","OBJECT_ID":"2011-016A","EPOCH":"2026-04-05T19:26:27.648672","MEAN_MOTION":1.0027175,"ECCENTRICITY":0.0004544,"INCLINATION":1.6189,"RA_OF_ASC_NODE":83.497,"ARG_OF_PERICENTER":299.0546,"MEAN_ANOMALY":71.4635,"EPHEMERIS_TYPE":0,"CLASSIFICATION_TYPE":"U","NORAD_CAT_ID":37392,"ELEMENT_SET_NO":999,"REV_AT_EPOCH":5256,"BSTAR":0,"MEAN_MOTION_DOT":-2.22e-6,"MEAN_MOTION_DDOT":0},{"OBJECT_NAME":"INTELSAT 18 (IS-18)","OBJECT_ID":"2011-056A","EPOCH":"2026-04-05T18:44:09.206304","MEAN_MOTION":1.00269431,"ECCENTRICITY":0.0001818,"INCLINATION":0.0136,"RA_OF_ASC_NODE":247.5968,"ARG_OF_PERICENTER":124.5705,"MEAN_ANOMALY":282.9388,"EPHEMERIS_TYPE":0,"CLASSIFICATION_TYPE":"U","NORAD_CAT_ID":37834,"ELEMENT_SET_NO":999,"REV_AT_EPOCH":5308,"BSTAR":0,"MEAN_MOTION_DOT":5.4e-7,"MEAN_MOTION_DDOT":0},{"OBJECT_NAME":"INTELSAT 22 (IS-22)","OBJECT_ID":"2012-011A","EPOCH":"2026-04-05T20:48:38.808576","MEAN_MOTION":1.00271638,"ECCENTRICITY":0.0001739,"INCLINATION":0.0106,"RA_OF_ASC_NODE":125.3024,"ARG_OF_PERICENTER":262.1474,"MEAN_ANOMALY":190.972,"EPHEMERIS_TYPE":0,"CLASSIFICATION_TYPE":"U","NORAD_CAT_ID":38098,"ELEMENT_SET_NO":999,"REV_AT_EPOCH":646,"BSTAR":0,"MEAN_MOTION_DOT":-5.7e-7,"MEAN_MOTION_DDOT":0},{"OBJECT_NAME":"INTELSAT 19 (IS-19)","OBJECT_ID":"2012-030A","EPOCH":"2026-04-05T16:57:26.976672","MEAN_MOTION":1.00270269,"ECCENTRICITY":0.0003091,"INCLINATION":0.0272,"RA_OF_ASC_NODE":98.6516,"ARG_OF_PERICENTER":280.2375,"MEAN_ANOMALY":235.47,"EPHEMERIS_TYPE":0,"CLASSIFICATION_TYPE":"U","NORAD_CAT_ID":38356,"ELEMENT_SET_NO":999,"REV_AT_EPOCH":4972,"BSTAR":0,"MEAN_MOTION_DOT":-5.5e-7,"MEAN_MOTION_DDOT":0},{"OBJECT_NAME":"INTELSAT 20 (IS-20)","OBJECT_ID":"2012-043A","EPOCH":"2026-04-05T16:29:35.503008","MEAN_MOTION":1.00269592,"ECCENTRICITY":0.0002408,"INCLINATION":0.0204,"RA_OF_ASC_NODE":136.6203,"ARG_OF_PERICENTER":35.0539,"MEAN_ANOMALY":338.1955,"EPHEMERIS_TYPE":0,"CLASSIFICATION_TYPE":"U","NORAD_CAT_ID":38740,"ELEMENT_SET_NO":999,"REV_AT_EPOCH":5002,"BSTAR":0,"MEAN_MOTION_DOT":-2.2e-7,"MEAN_MOTION_DDOT":0},{"OBJECT_NAME":"INTELSAT 21 (IS-21)","OBJECT_ID":"2012-045A","EPOCH":"2026-04-05T02:12:09.119808","MEAN_MOTION":1.00272496,"ECCENTRICITY":0.00019521,"INCLINATION":0.0182,"RA_OF_ASC_NODE":208.739,"ARG_OF_PERICENTER":184.6489,"MEAN_ANOMALY":135.0477,"EPHEMERIS_TYPE":0,"CLASSIFICATION_TYPE":"U","NORAD_CAT_ID":38749,"ELEMENT_SET_NO":999,"REV_AT_EPOCH":4979,"BSTAR":0,"MEAN_MOTION_DOT":-2.84e-6,"MEAN_MOTION_DDOT":0},{"OBJECT_NAME":"INTELSAT 23 (IS-23)","OBJECT_ID":"2012-057A","EPOCH":"2026-04-05T19:20:20.736384","MEAN_MOTION":1.00275117,"ECCENTRICITY":2.9e-5,"INCLINATION":0.0143,"RA_OF_ASC_NODE":246.8169,"ARG_OF_PERICENTER":154.681,"MEAN_ANOMALY":29.6768,"EPHEMERIS_TYPE":0,"CLASSIFICATION_TYPE":"U","NORAD_CAT_ID":38867,"ELEMENT_SET_NO":999,"REV_AT_EPOCH":4922,"BSTAR":0,"MEAN_MOTION_DOT":-2.83e-6,"MEAN_MOTION_DDOT":0},{"OBJECT_NAME":"FM-6","OBJECT_ID":"2013-058A","EPOCH":"2026-04-05T15:36:55.552608","MEAN_MOTION":1.00278598,"ECCENTRICITY":0.0002811,"INCLINATION":0.0148,"RA_OF_ASC_NODE":211.422,"ARG_OF_PERICENTER":351.9825,"MEAN_ANOMALY":108.4646,"EPHEMERIS_TYPE":0,"CLASSIFICATION_TYPE":"U","NORAD_CAT_ID":39360,"ELEMENT_SET_NO":999,"REV_AT_EPOCH":4534,"BSTAR":0,"MEAN_MOTION_DOT":-1.5e-7,"MEAN_MOTION_DDOT":0}]
